GLOBALSTAR M084         
1 38040U 11080A   25294.51761851 -.00000098  00000+0  34968-4 0  9992
2 38040  52.0032  23.8768 0000262  90.7572 282.0886 12.62269497638620
GLOBALSTAR M080         
1 38041U 11080B   25294.58900927 -.00000096  00000+0  45033-4 0  9992
2 38041  52.0083  25.2956 0001028 101.5369   5.1127 12.62269754638750
GLOBALSTAR M082         
1 38042U 11080C   25294.53411623 -.00000069  00000+0  19513-3 0  9991
2 38042  52.0097 340.9398 0000732 104.9765  42.6341 12.62264034639459
GLOBALSTAR M092         
1 38043U 11080D   25294.57221205 -.00000102  00000+0  72307-5 0  9991
2 38043  52.0080  71.2043 0000764 100.7794 339.1463 12.62267202637912
GLOBALSTAR M090         
1 38044U 11080E   25294.37269431 -.00000066  00000+0  20949-3 0  9995
2 38044  52.0143 335.3105 0000454 118.9117 253.9349 12.62263212639557
GLOBALSTAR M086         
1 38045U 11080F   25294.50727635 -.00000071  00000+0  18228-3 0  9999
2 38045  51.9915 335.2189 0000742 223.4994 287.6914 12.62278438639513
GLOBALSTAR M097         
1 39072U 13005A   25294.26404075 -.00000103  00000+0  21434-5 0  9993
2 39072  52.0037 250.6397 0000442  81.9296 278.1621 12.62266636586733
GLOBALSTAR M093         
1 39073U 13005B   25294.23803932 -.00000096  00000+0  42150-4 0  9994
2 39073  52.0095 243.9754 0000530 100.9276 259.1651 12.62265464586682
